start=new Date('2023-04-26T00:00:00.000Z').valueOf();
sats=[{"LAUNCH_DATE":"2022-04-29","ARG_OF_PERICENTER":"120.0701","PERIAPSIS":"538.801","MEAN_MOTION_DDOT":"0.0000000000000","GP_ID":"230743360","OBJECT_ID":"2022-045M","RCS_SIZE":"LARGE","OBJECT_TYPE":"PAYLOAD","INCLINATION":"53.2156","NORAD_CAT_ID":"52342","REV_AT_EPOCH":"5738","ECCENTRICITY":"0.00014970","BSTAR":"-0.00071376000000","SITE":"AFETR","TLE_LINE2":"2 52342  53.2156 229.2460 0001497 120.0701 240.0440 15.08810148 57380","CENTER_NAME":"EARTH","EPHEMERIS_TYPE":"0","CLASSIFICATION_TYPE":"U","MEAN_ELEMENT_THEORY":"SGP4","COUNTRY_CODE":"US","DECAY_DATE":null,"REF_FRAME":"TEME","TIME_SYSTEM":"UTC","MEAN_MOTION_DOT":"-0.00011620","EPOCH":"2023-04-25T11:20:59.265024","APOAPSIS":"540.872","SEMIMAJOR_AXIS":"6917.972","MEAN_ANOMALY":"240.0440","PERIOD":"95.439","RA_OF_ASC_NODE":"229.2460","FILE":"3894092","MEAN_MOTION":"15.08810148","ELEMENT_SET_NO":"999","OBJECT_NAME":"STARLINK-3850","TLE_LINE1":"1 52342U 22045M   23115.47290816 -.00011620  00000-0 -71376-3 0  9997"},{"BSTAR":"-0.00077288000000","ECCENTRICITY":"0.00014550","NORAD_CAT_ID":"52343","REV_AT_EPOCH":"5719","DECAY_DATE":null,"REF_FRAME":"TEME","COUNTRY_CODE":"US","SITE":"AFETR","EPHEMERIS_TYPE":"0","CLASSIFICATION_TYPE":"U","MEAN_ELEMENT_THEORY":"SGP4","TLE_LINE2":"2 52343  53.2158 240.9603 0001455  94.7522 265.3637 15.08816873 57192","CENTER_NAME":"EARTH","ARG_OF_PERICENTER":"94.7522","LAUNCH_DATE":"2022-04-29","PERIAPSIS":"538.810","OBJECT_TYPE":"PAYLOAD","RCS_SIZE":"LARGE","OBJECT_ID":"2022-045N","INCLINATION":"53.2158","MEAN_MOTION_DDOT":"0.0000000000000","GP_ID":"230744111","FILE":"3894092","TLE_LINE1":"1 52343U 22045N   23115.08829700 -.00012559  00000-0 -77288-3 0  9995","OBJECT_NAME":"STARLINK-3849","ELEMENT_SET_NO":"999","MEAN_MOTION":"15.08816873","EPOCH":"2023-04-25T02:07:08.860800","MEAN_MOTION_DOT":"-0.00012559","TIME_SYSTEM":"UTC","RA_OF_ASC_NODE":"240.9603","APOAPSIS":"540.823","PERIOD":"95.439","SEMIMAJOR_AXIS":"6917.951","MEAN_ANOMALY":"265.3637"},{"MEAN_MOTION":"15.08781176","TLE_LINE1":"1 52344U 22045P   23115.47195506  .00007733  00000-0  50420-3 0  9994","OBJECT_NAME":"STARLINK-3851","ELEMENT_SET_NO":"999","FILE":"3894092","PERIOD":"95.441","MEAN_ANOMALY":"234.7943","SEMIMAJOR_AXIS":"6918.060","APOAPSIS":"541.143","RA_OF_ASC_NODE":"229.3060","MEAN_MOTION_DOT":"0.00007733","TIME_SYSTEM":"UTC","EPOCH":"2023-04-25T11:19:36.917184","CLASSIFICATION_TYPE":"U","EPHEMERIS_TYPE":"0","MEAN_ELEMENT_THEORY":"SGP4","TLE_LINE2":"2 52344  53.2159 229.3060 0001760 125.3214 234.7943 15.08781176 57388","CENTER_NAME":"EARTH","SITE":"AFETR","REF_FRAME":"TEME","DECAY_DATE":null,"COUNTRY_CODE":"US","REV_AT_EPOCH":"5738","NORAD_CAT_ID":"52344","ECCENTRICITY":"0.00017600","BSTAR":"0.00050420000000","GP_ID":"230742859","MEAN_MOTION_DDOT":"0.0000000000000","INCLINATION":"53.2159","OBJECT_TYPE":"PAYLOAD","OBJECT_ID":"2022-045P","RCS_SIZE":"LARGE","PERIAPSIS":"538.708","ARG_OF_PERICENTER":"125.3214","LAUNCH_DATE":"2022-04-29"},{"REV_AT_EPOCH":"5735","NORAD_CAT_ID":"52345","BSTAR":"-0.00037394000000","ECCENTRICITY":"0.00012980","CLASSIFICATION_TYPE":"U","MEAN_ELEMENT_THEORY":"SGP4","EPHEMERIS_TYPE":"0","TLE_LINE2":"2 52345  53.2171 229.7884 0001298 119.9081 240.2040 15.08818854 57359","CENTER_NAME":"EARTH","SITE":"AFETR","DECAY_DATE":null,"REF_FRAME":"TEME","COUNTRY_CODE":"US","PERIAPSIS":"538.912","ARG_OF_PERICENTER":"119.9081","LAUNCH_DATE":"2022-04-29","GP_ID":"230742610","MEAN_MOTION_DDOT":"0.0000000000000","INCLINATION":"53.2171","OBJECT_TYPE":"PAYLOAD","RCS_SIZE":"LARGE","OBJECT_ID":"2022-045Q","FILE":"3894092","MEAN_MOTION":"15.08818854","TLE_LINE1":"1 52345U 22045Q   23115.35051064 -.00006231  00000-0 -37394-3 0  9991","ELEMENT_SET_NO":"999","OBJECT_NAME":"STARLINK-3852","MEAN_MOTION_DOT":"-0.00006231","TIME_SYSTEM":"UTC","EPOCH":"2023-04-25T08:24:44.119296","PERIOD":"95.439","MEAN_ANOMALY":"240.2040","SEMIMAJOR_AXIS":"6917.945","APOAPSIS":"540.708","RA_OF_ASC_NODE":"229.7884"},{"TIME_SYSTEM":"UTC","MEAN_MOTION_DOT":"0.00106138","EPOCH":"2023-04-25T11:10:24.537792","SEMIMAJOR_AXIS":"6918.795","MEAN_ANOMALY":"333.6653","PERIOD":"95.456","APOAPSIS":"543.457","RA_OF_ASC_NODE":"229.2829","FILE":"3894092","MEAN_MOTION":"15.08540753","ELEMENT_SET_NO":"999","OBJECT_NAME":"STARLINK-3812","TLE_LINE1":"1 52346U 22045R   23115.46556178  .00106138  00000-0  66411-2 0  9996","PERIAPSIS":"537.864","LAUNCH_DATE":"2022-04-29","ARG_OF_PERICENTER":"26.4544","GP_ID":"230743861","MEAN_MOTION_DDOT":"0.0000000000000","INCLINATION":"53.2156","RCS_SIZE":"LARGE","OBJECT_ID":"2022-045R","OBJECT_TYPE":"PAYLOAD","REV_AT_EPOCH":"5738","NORAD_CAT_ID":"52346","ECCENTRICITY":"0.00040420","BSTAR":"0.00664110000000","TLE_LINE2":"2 52346  53.2156 229.2829 0004042  26.4544 333.6653 15.08540753 57383","CENTER_NAME":"EARTH","MEAN_ELEMENT_THEORY":"SGP4","EPHEMERIS_TYPE":"0","CLASSIFICATION_TYPE":"U","SITE":"AFETR","COUNTRY_CODE":"US","REF_FRAME":"TEME","DECAY_DATE":null},{"SEMIMAJOR_AXIS":"6917.840","MEAN_ANOMALY":"172.6976","PERIOD":"95.437","APOAPSIS":"540.865","RA_OF_ASC_NODE":"228.7496","TIME_SYSTEM":"UTC","MEAN_MOTION_DOT":"-0.00055850","EPOCH":"2023-04-25T14:00:01.999872","MEAN_MOTION":"15.08853299","OBJECT_NAME":"STARLINK-3826","ELEMENT_SET_NO":"999","TLE_LINE1":"1 52347U 22045S   23115.58335648 -.00055850  00000-0 -35171-2 0  9992","FILE":"3894092","GP_ID":"230743611","MEAN_MOTION_DDOT":"0.0000000000000","INCLINATION":"53.2155","OBJECT_ID":"2022-045S","RCS_SIZE":"LARGE","OBJECT_TYPE":"PAYLOAD","PERIAPSIS":"538.545","LAUNCH_DATE":"2022-04-29","ARG_OF_PERICENTER":"47.7058","CENTER_NAME":"EARTH","TLE_LINE2":"2 52347  53.2155 228.7496 0001677  47.7058 172.6976 15.08853299  1306","CLASSIFICATION_TYPE":"U","EPHEMERIS_TYPE":"0","MEAN_ELEMENT_THEORY":"SGP4","SITE":"AFETR","COUNTRY_CODE":"US","REF_FRAME":"TEME","DECAY_DATE":null,"REV_AT_EPOCH":"130","NORAD_CAT_ID":"52347","BSTAR":"-0.00351710000000","ECCENTRICITY":"0.00016770"},{"FILE":"3894092","MEAN_MOTION":"15.08824306","ELEMENT_SET_NO":"999","OBJECT_NAME":"STARLINK-3829","TLE_LINE1":"1 52348U 22045T   23115.45721433 -.00020268  00000-0 -12595-2 0  9990","TIME_SYSTEM":"UTC","MEAN_MOTION_DOT":"-0.00020268","EPOCH":"2023-04-25T10:58:23.318112","APOAPSIS":"540.581","MEAN_ANOMALY":"240.6195","SEMIMAJOR_AXIS":"6917.928","PERIOD":"95.439","RA_OF_ASC_NODE":"229.3071","NORAD_CAT_ID":"52348","REV_AT_EPOCH":"5738","ECCENTRICITY":"0.00011380","BSTAR":"-0.00125950000000","SITE":"AFETR","TLE_LINE2":"2 52348  53.2149 229.3071 0001138 119.4911 240.6195 15.08824306 57388","CENTER_NAME":"EARTH","MEAN_ELEMENT_THEORY":"SGP4","CLASSIFICATION_TYPE":"U","EPHEMERIS_TYPE":"0","COUNTRY_CODE":"US","REF_FRAME":"TEME","DECAY_DATE":null,"LAUNCH_DATE":"2022-04-29","ARG_OF_PERICENTER":"119.4911","PERIAPSIS":"539.006","MEAN_MOTION_DDOT":"0.0000000000000","GP_ID":"230742360","OBJECT_ID":"2022-045T","RCS_SIZE":"LARGE","OBJECT_TYPE":"PAYLOAD","INCLINATION":"53.2149"},{"MEAN_MOTION_DOT":"-0.00000542","TIME_SYSTEM":"UTC","EPOCH":"2023-04-25T11:14:18.117600","APOAPSIS":"541.313","PERIOD":"95.440","SEMIMAJOR_AXIS":"6918.015","MEAN_ANOMALY":"6.9078","RA_OF_ASC_NODE":"229.2625","FILE":"3894092","MEAN_MOTION":"15.08795844","TLE_LINE1":"1 52349U 22045U   23115.46826525 -.00000542  00000-0 -15990-4 0  9997","ELEMENT_SET_NO":"999","OBJECT_NAME":"STARLINK-3819","ARG_OF_PERICENTER":"353.1886","LAUNCH_DATE":"2022-04-29","PERIAPSIS":"538.448","MEAN_MOTION_DDOT":"0.0000000000000","GP_ID":"230743110","OBJECT_TYPE":"PAYLOAD","RCS_SIZE":"LARGE","OBJECT_ID":"2022-045U","INCLINATION":"53.2145","NORAD_CAT_ID":"52349","REV_AT_EPOCH":"5738","ECCENTRICITY":"0.00020710","BSTAR":"-0.00001599000000","SITE":"AFETR","MEAN_ELEMENT_THEORY":"SGP4","EPHEMERIS_TYPE":"0","CLASSIFICATION_TYPE":"U","CENTER_NAME":"EARTH","TLE_LINE2":"2 52349  53.2145 229.2625 0002071 353.1886   6.9078 15.08795844 57381","DECAY_DATE":null,"REF_FRAME":"TEME","COUNTRY_CODE":"US"},{"MEAN_MOTION_DDOT":"0.0000000000000","GP_ID":"230743361","RCS_SIZE":"LARGE","OBJECT_ID":"2022-045V","OBJECT_TYPE":"PAYLOAD","INCLINATION":"53.2168","LAUNCH_DATE":"2022-04-29","ARG_OF_PERICENTER":"81.4963","PERIAPSIS":"539.167","SITE":"AFETR","CENTER_NAME":"EARTH","TLE_LINE2":"2 52350  53.2168 229.3264 0001011  81.4963 278.6144 15.08800356 57385","MEAN_ELEMENT_THEORY":"SGP4","EPHEMERIS_TYPE":"0","CLASSIFICATION_TYPE":"U","COUNTRY_CODE":"US","REF_FRAME":"TEME","DECAY_DATE":null,"NORAD_CAT_ID":"52350","REV_AT_EPOCH":"5738","ECCENTRICITY":"0.00010110","BSTAR":"-0.00137310000000","APOAPSIS":"540.566","SEMIMAJOR_AXIS":"6918.002","MEAN_ANOMALY":"278.6144","PERIOD":"95.440","RA_OF_ASC_NODE":"229.3264","TIME_SYSTEM":"UTC","MEAN_MOTION_DOT":"-0.00022050","EPOCH":"2023-04-25T10:53:06.549792","MEAN_MOTION":"15.08800356","OBJECT_NAME":"STARLINK-3754","ELEMENT_SET_NO":"999","TLE_LINE1":"1 52350U 22045V   23115.45354803 -.00022050  00000-0 -13731-2 0  9990","FILE":"3894092"},{"PERIAPSIS":"537.898","ARG_OF_PERICENTER":"79.3880","LAUNCH_DATE":"2022-04-29","GP_ID":"230744112","MEAN_MOTION_DDOT":"0.0000000000000","INCLINATION":"53.2134","OBJECT_TYPE":"PAYLOAD","RCS_SIZE":"LARGE","OBJECT_ID":"2022-045X","REV_AT_EPOCH":"5736","NORAD_CAT_ID":"52352","ECCENTRICITY":"0.00026200","BSTAR":"-0.00028381000000","EPHEMERIS_TYPE":"0","MEAN_ELEMENT_THEORY":"SGP4","CLASSIFICATION_TYPE":"U","TLE_LINE2":"2 52352  53.2134 229.9722 0002620  79.3880 280.7408 15.08851564 57368","CENTER_NAME":"EARTH","SITE":"AFETR","REF_FRAME":"TEME","DECAY_DATE":null,"COUNTRY_CODE":"US","MEAN_MOTION_DOT":"-0.00004804","TIME_SYSTEM":"UTC","EPOCH":"2023-04-25T07:26:25.072224","PERIOD":"95.437","SEMIMAJOR_AXIS":"6917.845","MEAN_ANOMALY":"280.7408","APOAPSIS":"541.523","RA_OF_ASC_NODE":"229.9722","FILE":"3894092","MEAN_MOTION":"15.08851564","TLE_LINE1":"1 52352U 22045X   23115.31001241 -.00004804  00000-0 -28381-3 0  9997","OBJECT_NAME":"STARLINK-3838","ELEMENT_SET_NO":"999"}];
